[{"OBJECT_NAME":"STARLINK-31054","OBJECT_ID":"2023-203B","EPOCH":"2026-03-09T01:28:33.805632","MEAN_MOTION":15.27568374,"ECCENTRICITY":0.00011168,"INCLINATION":43.0061,"RA_OF_ASC_NODE":70.7851,"ARG_OF_PERICENTER":265.1004,"MEAN_ANOMALY":94.972,"EPHEMERIS_TYPE":0,"CLASSIFICATION_TYPE":"U","NORAD_CAT_ID":58619,"ELEMENT_SET_NO":999,"REV_AT_EPOCH":12346,"BSTAR":1.1594819e-5,"MEAN_MOTION_DOT":5.7e-7,"MEAN_MOTION_DDOT":0},{"OBJECT_NAME":"TEVEL2-3","OBJECT_ID":"2025-052J","EPOCH":"2026-03-09T15:29:22.754400","MEAN_MOTION":15.30377031,"ECCENTRICITY":0.0004761,"INCLINATION":97.3994,"RA_OF_ASC_NODE":324.7775,"ARG_OF_PERICENTER":105.7353,"MEAN_ANOMALY":254.4413,"EPHEMERIS_TYPE":0,"CLASSIFICATION_TYPE":"U","NORAD_CAT_ID":63218,"ELEMENT_SET_NO":999,"REV_AT_EPOCH":5485,"BSTAR":0.00069446,"MEAN_MOTION_DOT":0.00020365,"MEAN_MOTION_DDOT":0}]
